start=new Date('2021-09-20T00:00:00.000Z').valueOf();
sats=[{"SITE":"AFETR","SEMIMAJOR_AXIS":"6925.367","RA_OF_ASC_NODE":"87.3915","BSTAR":"-0.00004934700000","OBJECT_ID":"2020-074K","PERIAPSIS":"546.735","TLE_LINE2":"2 46748  53.0548  87.3915 0000717 173.3947 186.7052 15.06394109 50718","RCS_SIZE":"LARGE","OBJECT_NAME":"STARLINK-1910","DECAY_DATE":null,"GP_ID":"185056009","MEAN_MOTION_DDOT":"0.0000000000000","MEAN_ANOMALY":"186.7052","OBJECT_TYPE":"PAYLOAD","NORAD_CAT_ID":"46748","TLE_LINE1":"1 46748U 20074K   21262.81476287 -.00001016  00000-0 -49347-4 0  9999","COUNTRY_CODE":"US","REV_AT_EPOCH":"5071","EPHEMERIS_TYPE":"0","CLASSIFICATION_TYPE":"U","TIME_SYSTEM":"UTC","EPOCH":"2021-09-19T19:33:15.511968","PERIOD":"95.593","MEAN_MOTION_DOT":"-0.00001016","REF_FRAME":"TEME","APOAPSIS":"547.728","LAUNCH_DATE":"2020-10-24","FILE":"3120378","CENTER_NAME":"EARTH","ARG_OF_PERICENTER":"173.3947","ELEMENT_SET_NO":"999","MEAN_MOTION":"15.06394109","ECCENTRICITY":"0.00007170","MEAN_ELEMENT_THEORY":"SGP4","INCLINATION":"53.0548"},{"PERIOD":"95.593","EPOCH":"2021-09-19T21:19:25.808160","TIME_SYSTEM":"UTC","APOAPSIS":"548.559","REF_FRAME":"TEME","MEAN_MOTION_DOT":"0.00001062","FILE":"3120378","LAUNCH_DATE":"2020-10-24","ARG_OF_PERICENTER":"87.2833","CENTER_NAME":"EARTH","ELEMENT_SET_NO":"999","MEAN_MOTION":"15.06390202","INCLINATION":"53.0550","MEAN_ELEMENT_THEORY":"SGP4","ECCENTRICITY":"0.00019000","RCS_SIZE":"LARGE","TLE_LINE2":"2 46749  53.0550  87.0554 0001900  87.2833 272.8373 15.06390202 50724","PERIAPSIS":"545.928","OBJECT_ID":"2020-074L","RA_OF_ASC_NODE":"87.0554","SITE":"AFETR","SEMIMAJOR_AXIS":"6925.379","BSTAR":"0.00009023900000","OBJECT_NAME":"STARLINK-1911","MEAN_ANOMALY":"272.8373","GP_ID":"185056256","MEAN_MOTION_DDOT":"0.0000000000000","DECAY_DATE":null,"OBJECT_TYPE":"PAYLOAD","NORAD_CAT_ID":"46749","TLE_LINE1":"1 46749U 20074L   21262.88849315  .00001062  00000-0  90239-4 0  9998","COUNTRY_CODE":"US","EPHEMERIS_TYPE":"0","REV_AT_EPOCH":"5072","CLASSIFICATION_TYPE":"U"},{"LAUNCH_DATE":"2020-10-24","FILE":"3120378","REF_FRAME":"TEME","MEAN_MOTION_DOT":"0.00000722","APOAPSIS":"548.626","TIME_SYSTEM":"UTC","PERIOD":"95.592","EPOCH":"2021-09-19T21:14:06.151488","ECCENTRICITY":"0.00020530","INCLINATION":"53.0543","MEAN_ELEMENT_THEORY":"SGP4","MEAN_MOTION":"15.06403081","ELEMENT_SET_NO":"999","ARG_OF_PERICENTER":"84.4822","CENTER_NAME":"EARTH","NORAD_CAT_ID":"46751","OBJECT_TYPE":"PAYLOAD","MEAN_MOTION_DDOT":"0.0000000000000","GP_ID":"185057505","DECAY_DATE":null,"MEAN_ANOMALY":"275.6401","OBJECT_NAME":"STARLINK-1920","SITE":"AFETR","SEMIMAJOR_AXIS":"6925.339","RA_OF_ASC_NODE":"87.0823","BSTAR":"0.00006738300000","RCS_SIZE":"LARGE","TLE_LINE2":"2 46751  53.0543  87.0823 0002053  84.4822 275.6401 15.06403081 50728","PERIAPSIS":"545.782","OBJECT_ID":"2020-074N","CLASSIFICATION_TYPE":"U","REV_AT_EPOCH":"5072","EPHEMERIS_TYPE":"0","COUNTRY_CODE":"US","TLE_LINE1":"1 46751U 20074N   21262.88479342  .00000722  00000-0  67383-4 0  9996"},{"OBJECT_NAME":"STARLINK-1921","SITE":"AFETR","SEMIMAJOR_AXIS":"6925.369","RA_OF_ASC_NODE":"87.3347","BSTAR":"-0.00004639500000","TLE_LINE2":"2 46752  53.0562  87.3347 0001430 162.2932 197.8107 15.06393493 50711","RCS_SIZE":"LARGE","PERIAPSIS":"546.243","OBJECT_ID":"2020-074P","NORAD_CAT_ID":"46752","OBJECT_TYPE":"PAYLOAD","MEAN_MOTION_DDOT":"0.0000000000000","GP_ID":"185057258","DECAY_DATE":null,"MEAN_ANOMALY":"197.8107","COUNTRY_CODE":"US","TLE_LINE1":"1 46752U 20074P   21262.82951033 -.00000972  00000-0 -46395-4 0  9992","CLASSIFICATION_TYPE":"U","REV_AT_EPOCH":"5071","EPHEMERIS_TYPE":"0","TIME_SYSTEM":"UTC","PERIOD":"95.593","EPOCH":"2021-09-19T19:54:29.692512","LAUNCH_DATE":"2020-10-24","FILE":"3120378","REF_FRAME":"TEME","MEAN_MOTION_DOT":"-0.00000972","APOAPSIS":"548.224","ELEMENT_SET_NO":"999","ARG_OF_PERICENTER":"162.2932","CENTER_NAME":"EARTH","ECCENTRICITY":"0.00014300","INCLINATION":"53.0562","MEAN_ELEMENT_THEORY":"SGP4","MEAN_MOTION":"15.06393493"},{"NORAD_CAT_ID":"46753","OBJECT_TYPE":"PAYLOAD","MEAN_ANOMALY":"268.4738","DECAY_DATE":null,"GP_ID":"185056509","MEAN_MOTION_DDOT":"0.0000000000000","OBJECT_NAME":"STARLINK-1922","OBJECT_ID":"2020-074Q","PERIAPSIS":"545.864","RCS_SIZE":"LARGE","TLE_LINE2":"2 46753  53.0541  87.4685 0002029  91.6483 268.4738 15.06382009 50712","SITE":"AFETR","BSTAR":"0.00004089200000","SEMIMAJOR_AXIS":"6925.404","RA_OF_ASC_NODE":"87.4685","CLASSIFICATION_TYPE":"U","EPHEMERIS_TYPE":"0","REV_AT_EPOCH":"5071","COUNTRY_CODE":"US","TLE_LINE1":"1 46753U 20074Q   21262.79635131  .00000327  00000-0  40892-4 0  9995","FILE":"3120378","LAUNCH_DATE":"2020-10-24","APOAPSIS":"548.674","MEAN_MOTION_DOT":"0.00000327","REF_FRAME":"TEME","EPOCH":"2021-09-19T19:06:44.753184","PERIOD":"95.593","TIME_SYSTEM":"UTC","MEAN_ELEMENT_THEORY":"SGP4","INCLINATION":"53.0541","ECCENTRICITY":"0.00020290","MEAN_MOTION":"15.06382009","ELEMENT_SET_NO":"999","CENTER_NAME":"EARTH","ARG_OF_PERICENTER":"91.6483"},{"DECAY_DATE":null,"GP_ID":"185056756","MEAN_MOTION_DDOT":"0.0000000000000","MEAN_ANOMALY":"275.5952","OBJECT_TYPE":"PAYLOAD","NORAD_CAT_ID":"46754","BSTAR":"0.00007460600000","SITE":"AFETR","SEMIMAJOR_AXIS":"6925.371","RA_OF_ASC_NODE":"87.4440","PERIAPSIS":"545.943","OBJECT_ID":"2020-074R","RCS_SIZE":"LARGE","TLE_LINE2":"2 46754  53.0538  87.4440 0001866  84.5250 275.5952 15.06392764 50715","OBJECT_NAME":"STARLINK-1923","REV_AT_EPOCH":"5071","EPHEMERIS_TYPE":"0","CLASSIFICATION_TYPE":"U","TLE_LINE1":"1 46754U 20074R   21262.80371422  .00000830  00000-0  74606-4 0  9997","COUNTRY_CODE":"US","MEAN_MOTION_DOT":"0.00000830","REF_FRAME":"TEME","APOAPSIS":"548.528","LAUNCH_DATE":"2020-10-24","FILE":"3120378","TIME_SYSTEM":"UTC","EPOCH":"2021-09-19T19:17:20.908608","PERIOD":"95.593","MEAN_MOTION":"15.06392764","ECCENTRICITY":"0.00018660","MEAN_ELEMENT_THEORY":"SGP4","INCLINATION":"53.0538","CENTER_NAME":"EARTH","ARG_OF_PERICENTER":"84.5250","ELEMENT_SET_NO":"999"},{"MEAN_MOTION":"15.06393881","INCLINATION":"53.0581","MEAN_ELEMENT_THEORY":"SGP4","ECCENTRICITY":"0.00020190","ARG_OF_PERICENTER":"95.6868","CENTER_NAME":"EARTH","ELEMENT_SET_NO":"999","APOAPSIS":"548.631","REF_FRAME":"TEME","MEAN_MOTION_DOT":"-0.00001195","FILE":"3120378","LAUNCH_DATE":"2020-10-24","PERIOD":"95.593","EPOCH":"2021-09-19T19:24:38.164320","TIME_SYSTEM":"UTC","EPHEMERIS_TYPE":"0","REV_AT_EPOCH":"5064","CLASSIFICATION_TYPE":"U","TLE_LINE1":"1 46755U 20074S   21262.80877505 -.00001195  00000-0 -61352-4 0  9992","COUNTRY_CODE":"US","MEAN_ANOMALY":"264.4352","MEAN_MOTION_DDOT":"0.0000000000000","GP_ID":"185057006","DECAY_DATE":null,"OBJECT_TYPE":"PAYLOAD","NORAD_CAT_ID":"46755","RCS_SIZE":"LARGE","TLE_LINE2":"2 46755  53.0581  92.4215 0002019  95.6868 264.4352 15.06393881 50643","OBJECT_ID":"2020-074S","PERIAPSIS":"545.834","RA_OF_ASC_NODE":"92.4215","SITE":"AFETR","SEMIMAJOR_AXIS":"6925.367","BSTAR":"-0.00006135200000","OBJECT_NAME":"STARLINK-1924"},{"MEAN_ELEMENT_THEORY":"SGP4","INCLINATION":"53.0536","ECCENTRICITY":"0.00018440","MEAN_MOTION":"15.06403473","ELEMENT_SET_NO":"999","CENTER_NAME":"EARTH","ARG_OF_PERICENTER":"94.7159","FILE":"3120378","LAUNCH_DATE":"2020-10-24","APOAPSIS":"548.480","MEAN_MOTION_DOT":"0.00000955","REF_FRAME":"TEME","EPOCH":"2021-09-19T19:12:39.224736","PERIOD":"95.592","TIME_SYSTEM":"UTC","CLASSIFICATION_TYPE":"U","EPHEMERIS_TYPE":"0","REV_AT_EPOCH":"5064","COUNTRY_CODE":"US","TLE_LINE1":"1 46756U 20074T   21262.80045399  .00000955  00000-0  82996-4 0  9999","NORAD_CAT_ID":"46756","OBJECT_TYPE":"PAYLOAD","MEAN_ANOMALY":"265.4040","DECAY_DATE":null,"GP_ID":"185057758","MEAN_MOTION_DDOT":"0.0000000000000","OBJECT_NAME":"STARLINK-1925","OBJECT_ID":"2020-074T","PERIAPSIS":"545.926","TLE_LINE2":"2 46756  53.0536  92.4462 0001844  94.7159 265.4040 15.06403473 50640","RCS_SIZE":"LARGE","SITE":"AFETR","SEMIMAJOR_AXIS":"6925.338","RA_OF_ASC_NODE":"92.4462","BSTAR":"0.00008299600000"},{"MEAN_MOTION":"15.06398610","INCLINATION":"53.0547","MEAN_ELEMENT_THEORY":"SGP4","ECCENTRICITY":"0.00019470","ARG_OF_PERICENTER":"89.0844","CENTER_NAME":"EARTH","ELEMENT_SET_NO":"999","APOAPSIS":"548.566","REF_FRAME":"TEME","MEAN_MOTION_DOT":"0.00001433","FILE":"3120378","LAUNCH_DATE":"2020-10-24","PERIOD":"95.592","EPOCH":"2021-09-19T19:55:08.110272","TIME_SYSTEM":"UTC","EPHEMERIS_TYPE":"0","REV_AT_EPOCH":"5064","CLASSIFICATION_TYPE":"U","TLE_LINE1":"1 46757U 20074U   21262.82995498  .00001433  00000-0  11509-3 0  9999","COUNTRY_CODE":"US","MEAN_ANOMALY":"271.0368","GP_ID":"185056010","MEAN_MOTION_DDOT":"0.0000000000000","DECAY_DATE":null,"NORAD_CAT_ID":"46757","OBJECT_TYPE":"PAYLOAD","RCS_SIZE":"LARGE","TLE_LINE2":"2 46757  53.0547  92.3311 0001947  89.0844 271.0368 15.06398610 50649","PERIAPSIS":"545.869","OBJECT_ID":"2020-074U","SITE":"AFETR","RA_OF_ASC_NODE":"92.3311","SEMIMAJOR_AXIS":"6925.353","BSTAR":"0.00011509000000","OBJECT_NAME":"STARLINK-1926"},{"TLE_LINE1":"1 46758U 20074V   21262.92304243  .00001260  00000-0  10349-3 0  9992","COUNTRY_CODE":"US","EPHEMERIS_TYPE":"0","REV_AT_EPOCH":"5066","CLASSIFICATION_TYPE":"U","OBJECT_ID":"2020-074V","PERIAPSIS":"545.831","TLE_LINE2":"2 46758  53.0549  91.9100 0001992  85.8915 274.2301 15.06400945 50665","RCS_SIZE":"LARGE","SITE":"AFETR","RA_OF_ASC_NODE":"91.9100","SEMIMAJOR_AXIS":"6925.346","BSTAR":"0.00010349000000","OBJECT_NAME":"STARLINK-1928","MEAN_ANOMALY":"274.2301","DECAY_DATE":null,"MEAN_MOTION_DDOT":"0.0000000000000","GP_ID":"185056257","OBJECT_TYPE":"PAYLOAD","NORAD_CAT_ID":"46758","CENTER_NAME":"EARTH","ARG_OF_PERICENTER":"85.8915","ELEMENT_SET_NO":"999","MEAN_MOTION":"15.06400945","MEAN_ELEMENT_THEORY":"SGP4","INCLINATION":"53.0549","ECCENTRICITY":"0.00019920","EPOCH":"2021-09-19T22:09:10.865952","PERIOD":"95.592","TIME_SYSTEM":"UTC","APOAPSIS":"548.590","MEAN_MOTION_DOT":"0.00001260","REF_FRAME":"TEME","FILE":"3120378","LAUNCH_DATE":"2020-10-24"}];
